GLOBALSTAR M068         
1 32266U 07048D   25163.90245413 -.00000064  00000+0  22244-3 0  9990
2 32266  51.9898 315.3186 0001801 117.6297  59.6461 12.62824862817010
GLOBALSTAR M079         
1 37188U 10054A   25163.68743042 -.00000119  00000+0 -84922-4 0  9999
2 37188  52.0013 153.4826 0000292 314.8640 216.1380 12.62265031675881
GLOBALSTAR M074         
1 37189U 10054B   25163.91894045 -.00000125  00000+0 -11674-3 0  9996
2 37189  51.9989 152.1022 0000340  12.9409   9.4696 12.62256970676526
GLOBALSTAR M076         
1 37190U 10054C   25164.20209869 -.00000108  00000+0 -21878-4 0  9994
2 37190  52.0010 151.4100 0000416 354.9390 115.3791 12.62263307676633
GLOBALSTAR M077         
1 37191U 10054D   25163.24685332 -.00000109  00000+0 -31923-4 0  9994
2 37191  52.0066 111.1729 0000460  35.9769 111.3327 12.62268346676527
GLOBALSTAR M075         
1 37192U 10054E   25163.59521029 -.00000083  00000+0  11375-3 0  9993
2 37192  51.9923 195.5190 0000155 132.1193  38.8306 12.62265849675263
GLOBALSTAR M073         
1 37193U 10054F   25163.59543957 -.00000121  00000+0 -97175-4 0  9995
2 37193  52.0051 109.3318 0000502  21.5995 150.0890 12.62272005677304
GLOBALSTAR M083         
1 37739U 11033A   25163.73720079 -.00000094  00000+0  52068-4 0  9997
2 37739  51.9872  57.6388 0000547  71.5740 324.0668 12.62263815646292
GLOBALSTAR M088         
1 37740U 11033B   25164.21568480 -.00000098  00000+0  34689-4 0  9992
2 37740  52.0063 321.7265 0000881 112.5837  59.0413 12.62265460642186
GLOBALSTAR M091         
1 37741U 11033C   25163.83225828 -.00000079  00000+0  13989-3 0  9994
2 37741  52.0007 286.3921 0000750 142.8595  25.7480 12.62268635642633
GLOBALSTAR M085         
1 37742U 11033D   25163.65785185 -.00000066  00000+0  20944-3 0  9997
2 37742  51.9857 237.9652 0000514 167.4011 348.7448 12.62269273643128
GLOBALSTAR M081         
1 37743U 11033E   25163.92577074 -.00000069  00000+0  19293-3 0  9992
2 37743  51.9950 239.9354 0000319 170.0426   2.9327 12.62266444643309
GLOBALSTAR M089         
1 37744U 11033F   25164.09318414 -.00000084  00000+0  10977-3 0  9990
2 37744  51.9905 193.6522 0000241  55.2013 340.2791 12.62264799644421
GLOBALSTAR M084         
1 38040U 11080A   25164.21528855 -.00000090  00000+0  77150-4 0  9992
2 38040  52.0023  60.5653 0000965  51.9290 117.7462 12.62266677622441
GLOBALSTAR M080         
1 38041U 11080B   25164.18468481 -.00000086  00000+0  10003-3 0  9995
2 38041  52.0073  62.2489 0000789  97.7099  62.5417 12.62263378622422
GLOBALSTAR M082         
1 38042U 11080C   25163.78643162 -.00000087  00000+0  92952-4 0  9997
2 38042  52.0096  18.9221 0000884 109.0447 331.1485 12.62266631622942
GLOBALSTAR M092         
1 38043U 11080D   25163.90540108 -.00000123  00000+0 -10854-3 0  9990
2 38043  52.0074 108.9348 0000488  45.5274 335.5640 12.62264205621418
GLOBALSTAR M090         
1 38044U 11080E   25164.06926777 -.00000092  00000+0  66854-4 0  9995
2 38044  52.0144  11.8961 0000740  94.5394  72.4485 12.62273575623133
GLOBALSTAR M086         
1 38045U 11080F   25163.90345213 -.00000086  00000+0  98682-4 0  9995
2 38045  51.9920  12.9283 0000770   2.3202  11.2393 12.62271469623129
GLOBALSTAR M097         
1 39072U 13005A   25163.76866210 -.00000093  00000+0  61603-4 0  9995
2 39072  52.0055 287.8814 0000509 133.6345 226.4564 12.62272419570251
GLOBALSTAR M093         
1 39073U 13005B   25163.74227789 -.00000076  00000+0  15635-3 0  9990
2 39073  51.9816 281.2719 0000544 139.8928 220.1978 12.62265376570200
GLOBALSTAR M094         
1 39074U 13005C   25163.50477119 -.00000082  00000+0  11967-3 0  9990
2 39074  51.9934 196.3730 0000278 234.0963 125.9878 12.62262851571782
GLOBALSTAR M096         
1 39075U 13005D   25163.91386960 -.00000061  00000+0  23753-3 0  9992
2 39075  52.0067 243.6389 0000490 175.2942 184.7929 12.62265267570757
GLOBALSTAR M078         
1 39076U 13005E   25163.88739105 -.00000195  00000+0 -50818-3 0  9993
2 39076  51.9893 328.2342 0001350 138.8495 221.2474 12.62259418569588
GLOBALSTAR M095         
1 39077U 13005F   25163.75536819 -.00000102  00000+0  11619-4 0  9991
2 39077  51.9816 325.8345 0000882 138.8703 221.2230 12.62263540569212
GLOBALSTAR M087         
1 52888U 22064A   25163.54850931 -.00000126  00000+0 -12520-3 0  9990
2 52888  51.9986 107.9203 0000345  51.3091 308.7807 12.62263478144782
